{"fetched_at":"2026-03-29T02:12:04Z","count":15717,"tles":[{"name":"GSAT0101 (GALILEO-PFM)","line1":"1 37846U 11060A   26086.31314158 -.00000097  00000+0  00000+0 0  9999","line2":"2 37846  57.0197 343.9840 0004117  13.5470 346.4977  1.70475647 89720","category":"GPS"}]}